HAWK-6A                 
1 55327U 23011D   26068.67252600  .00007421  00000+0  32723-3 0  9992
2 55327  40.4983 210.5544 0002157   2.8660 357.2161 15.21907632172685
PRETTY                  
1 58023U 23155H   26068.79428157  .00010441  00000+0  45568-3 0  9999
2 58023  97.5727 149.5557 0002106  60.6464 299.4982 15.22332126133229
